[{"OBJECT_NAME":"STARLINK-35122","OBJECT_ID":"2025-198U","EPOCH":"2026-03-09T19:58:47.412480","MEAN_MOTION":15.30220325,"ECCENTRICITY":0.00013208,"INCLINATION":53.1579,"RA_OF_ASC_NODE":270.2142,"ARG_OF_PERICENTER":86.7414,"MEAN_ANOMALY":273.3738,"EPHEMERIS_TYPE":0,"CLASSIFICATION_TYPE":"U","NORAD_CAT_ID":65510,"ELEMENT_SET_NO":999,"REV_AT_EPOCH":2864,"BSTAR":0.0010047228,"MEAN_MOTION_DOT":0.00029535,"MEAN_MOTION_DDOT":0},{"OBJECT_NAME":"SL-3 R\/B","OBJECT_ID":"1982-079B","EPOCH":"2026-03-09T22:18:18.158976","MEAN_MOTION":15.24805533,"ECCENTRICITY":0.00250364,"INCLINATION":81.1481,"RA_OF_ASC_NODE":192.7939,"ARG_OF_PERICENTER":164.0597,"MEAN_ANOMALY":196.143,"EPHEMERIS_TYPE":0,"CLASSIFICATION_TYPE":"U","NORAD_CAT_ID":13403,"ELEMENT_SET_NO":999,"REV_AT_EPOCH":37773,"BSTAR":0.00032485557,"MEAN_MOTION_DOT":8.157e-5,"MEAN_MOTION_DDOT":0}]
